start=new Date('2023-03-30T00:00:00.000Z').valueOf();
sats=[{"DECAY_DATE":null,"COUNTRY_CODE":"US","MEAN_ANOMALY":"273.6602","CENTER_NAME":"EARTH","RA_OF_ASC_NODE":"331.1073","OBJECT_ID":"2022-105U","MEAN_ELEMENT_THEORY":"SGP4","FILE":"3874790","RCS_SIZE":"LARGE","ECCENTRICITY":"0.00008930","MEAN_MOTION_DDOT":"0.0000000000000","LAUNCH_DATE":"2022-08-31","APOAPSIS":"563.580","OBJECT_TYPE":"PAYLOAD","ELEMENT_SET_NO":"999","ARG_OF_PERICENTER":"86.4725","REF_FRAME":"TEME","SEMIMAJOR_AXIS":"6941.095","REV_AT_EPOCH":"3183","OBJECT_NAME":"STARLINK-4449","PERIOD":"95.918","TLE_LINE1":"1 53666U 22105U   23088.91111511  .00004285  00000-0  33785-3 0  9995","SITE":"AFWTR","MEAN_MOTION":"15.01276664","EPHEMERIS_TYPE":"0","INCLINATION":"97.6559","PERIAPSIS":"562.341","GP_ID":"229141911","TLE_LINE2":"2 53666  97.6559 331.1073 0000893  86.4725 273.6602 15.01276664 31838","BSTAR":"0.00033785000000","MEAN_MOTION_DOT":"0.00004285","NORAD_CAT_ID":"53666","EPOCH":"2023-03-29T21:52:00.345504","TIME_SYSTEM":"UTC","CLASSIFICATION_TYPE":"U"},{"MEAN_MOTION_DDOT":"0.0000000000000","APOAPSIS":"564.946","LAUNCH_DATE":"2022-08-31","OBJECT_TYPE":"PAYLOAD","ELEMENT_SET_NO":"999","ARG_OF_PERICENTER":"90.8871","REF_FRAME":"TEME","SEMIMAJOR_AXIS":"6941.085","OBJECT_NAME":"STARLINK-4406","REV_AT_EPOCH":"3181","DECAY_DATE":null,"COUNTRY_CODE":"US","MEAN_ANOMALY":"269.2683","CENTER_NAME":"EARTH","OBJECT_ID":"2022-105V","RA_OF_ASC_NODE":"330.9860","MEAN_ELEMENT_THEORY":"SGP4","FILE":"3874790","RCS_SIZE":"LARGE","ECCENTRICITY":"0.00028750","MEAN_MOTION_DOT":"0.00005605","TLE_LINE2":"2 53667  97.6556 330.9860 0002875  90.8871 269.2683 15.01280024 31813","GP_ID":"229141657","BSTAR":"0.00044037000000","NORAD_CAT_ID":"53667","EPOCH":"2023-03-29T18:50:22.059456","TIME_SYSTEM":"UTC","CLASSIFICATION_TYPE":"U","PERIOD":"95.918","TLE_LINE1":"1 53667U 22105V   23088.78497754  .00005605  00000-0  44037-3 0  9996","SITE":"AFWTR","MEAN_MOTION":"15.01280024","EPHEMERIS_TYPE":"0","INCLINATION":"97.6556","PERIAPSIS":"560.955"},{"EPOCH":"2023-03-29T21:51:39.453120","TIME_SYSTEM":"UTC","NORAD_CAT_ID":"53668","TLE_LINE2":"2 53668  97.6559 331.1067 0001052  98.0002 262.1341 15.01275726 31839","GP_ID":"229140910","BSTAR":"0.00038433000000","MEAN_MOTION_DOT":"0.00004883","CLASSIFICATION_TYPE":"U","TLE_LINE1":"1 53668U 22105W   23088.91087330  .00004883  00000-0  38433-3 0  9997","PERIOD":"95.918","INCLINATION":"97.6559","PERIAPSIS":"562.233","MEAN_MOTION":"15.01275726","EPHEMERIS_TYPE":"0","SITE":"AFWTR","OBJECT_TYPE":"PAYLOAD","ELEMENT_SET_NO":"999","APOAPSIS":"563.694","LAUNCH_DATE":"2022-08-31","MEAN_MOTION_DDOT":"0.0000000000000","OBJECT_NAME":"STARLINK-4458","REV_AT_EPOCH":"3183","SEMIMAJOR_AXIS":"6941.098","REF_FRAME":"TEME","ARG_OF_PERICENTER":"98.0002","CENTER_NAME":"EARTH","MEAN_ANOMALY":"262.1341","COUNTRY_CODE":"US","DECAY_DATE":null,"ECCENTRICITY":"0.00010520","FILE":"3874790","RCS_SIZE":"LARGE","MEAN_ELEMENT_THEORY":"SGP4","RA_OF_ASC_NODE":"331.1067","OBJECT_ID":"2022-105W"},{"CLASSIFICATION_TYPE":"U","NORAD_CAT_ID":"53669","BSTAR":"0.00064765000000","TLE_LINE2":"2 53669  97.6558 331.1094 0001263  86.1055 274.0313 15.01276330 31832","GP_ID":"229140660","MEAN_MOTION_DOT":"0.00008273","TIME_SYSTEM":"UTC","EPOCH":"2023-03-29T21:54:19.263744","SITE":"AFWTR","PERIAPSIS":"562.085","INCLINATION":"97.6558","EPHEMERIS_TYPE":"0","MEAN_MOTION":"15.01276330","PERIOD":"95.918","TLE_LINE1":"1 53669U 22105X   23088.91272296  .00008273  00000-0  64765-3 0  9999","SEMIMAJOR_AXIS":"6941.097","ARG_OF_PERICENTER":"86.1055","REF_FRAME":"TEME","REV_AT_EPOCH":"3183","OBJECT_NAME":"STARLINK-4464","MEAN_MOTION_DDOT":"0.0000000000000","ELEMENT_SET_NO":"999","OBJECT_TYPE":"PAYLOAD","LAUNCH_DATE":"2022-08-31","APOAPSIS":"563.838","RCS_SIZE":"LARGE","FILE":"3874790","RA_OF_ASC_NODE":"331.1094","OBJECT_ID":"2022-105X","MEAN_ELEMENT_THEORY":"SGP4","ECCENTRICITY":"0.00012630","COUNTRY_CODE":"US","DECAY_DATE":null,"CENTER_NAME":"EARTH","MEAN_ANOMALY":"274.0313"},{"PERIOD":"95.918","TLE_LINE1":"1 53670U 22105Y   23088.90717110  .00003726  00000-0  29430-3 0  9997","SITE":"AFWTR","INCLINATION":"97.6560","PERIAPSIS":"561.876","MEAN_MOTION":"15.01288785","EPHEMERIS_TYPE":"0","NORAD_CAT_ID":"53670","TLE_LINE2":"2 53670  97.6560 331.1022 0001508 121.0917 239.0455 15.01288785 31831","GP_ID":"229141412","MEAN_MOTION_DOT":"0.00003726","BSTAR":"0.00029430000000","EPOCH":"2023-03-29T21:46:19.583040","TIME_SYSTEM":"UTC","CLASSIFICATION_TYPE":"U","COUNTRY_CODE":"US","DECAY_DATE":null,"CENTER_NAME":"EARTH","MEAN_ANOMALY":"239.0455","FILE":"3874790","RCS_SIZE":"LARGE","MEAN_ELEMENT_THEORY":"SGP4","RA_OF_ASC_NODE":"331.1022","OBJECT_ID":"2022-105Y","ECCENTRICITY":"0.00015080","MEAN_MOTION_DDOT":"0.0000000000000","OBJECT_TYPE":"PAYLOAD","ELEMENT_SET_NO":"999","APOAPSIS":"563.970","LAUNCH_DATE":"2022-08-31","SEMIMAJOR_AXIS":"6941.058","REF_FRAME":"TEME","ARG_OF_PERICENTER":"121.0917","OBJECT_NAME":"STARLINK-4459","REV_AT_EPOCH":"3183"},{"OBJECT_NAME":"STARLINK-4440","REV_AT_EPOCH":"3180","SEMIMAJOR_AXIS":"6941.051","REF_FRAME":"TEME","ARG_OF_PERICENTER":"122.3735","OBJECT_TYPE":"PAYLOAD","ELEMENT_SET_NO":"999","APOAPSIS":"564.133","LAUNCH_DATE":"2022-08-31","MEAN_MOTION_DDOT":"0.0000000000000","ECCENTRICITY":"0.00017540","FILE":"3874790","RCS_SIZE":"LARGE","RA_OF_ASC_NODE":"330.9054","MEAN_ELEMENT_THEORY":"SGP4","OBJECT_ID":"2022-105Z","CENTER_NAME":"EARTH","MEAN_ANOMALY":"237.7659","COUNTRY_CODE":"US","DECAY_DATE":null,"CLASSIFICATION_TYPE":"U","EPOCH":"2023-03-29T17:01:02.371008","TIME_SYSTEM":"UTC","NORAD_CAT_ID":"53671","GP_ID":"229142157","TLE_LINE2":"2 53671  97.6561 330.9054 0001754 122.3735 237.7659 15.01291197 31809","BSTAR":"0.00040683000000","MEAN_MOTION_DOT":"0.00005175","INCLINATION":"97.6561","PERIAPSIS":"561.698","MEAN_MOTION":"15.01291197","EPHEMERIS_TYPE":"0","SITE":"AFWTR","TLE_LINE1":"1 53671U 22105Z   23088.70905522  .00005175  00000-0  40683-3 0  9995","PERIOD":"95.917"},{"MEAN_MOTION":"15.01279228","EPHEMERIS_TYPE":"0","INCLINATION":"97.6560","PERIAPSIS":"562.062","SITE":"AFWTR","TLE_LINE1":"1 53672U 22105AA  23088.90370652  .00003339  00000-0  26432-3 0  9994","PERIOD":"95.918","CLASSIFICATION_TYPE":"U","EPOCH":"2023-03-29T21:41:20.243328","TIME_SYSTEM":"UTC","TLE_LINE2":"2 53672  97.6560 331.0994 0001283  81.3454 278.7915 15.01279228 31837","BSTAR":"0.00026432000000","GP_ID":"229140411","MEAN_MOTION_DOT":"0.00003339","NORAD_CAT_ID":"53672","ECCENTRICITY":"0.00012830","MEAN_ELEMENT_THEORY":"SGP4","RA_OF_ASC_NODE":"331.0994","OBJECT_ID":"2022-105AA","FILE":"3874790","RCS_SIZE":"LARGE","MEAN_ANOMALY":"278.7915","CENTER_NAME":"EARTH","DECAY_DATE":null,"COUNTRY_CODE":"US","OBJECT_NAME":"STARLINK-4428","REV_AT_EPOCH":"3183","REF_FRAME":"TEME","ARG_OF_PERICENTER":"81.3454","SEMIMAJOR_AXIS":"6941.088","LAUNCH_DATE":"2022-08-31","APOAPSIS":"563.843","OBJECT_TYPE":"PAYLOAD","ELEMENT_SET_NO":"999","MEAN_MOTION_DDOT":"0.0000000000000"},{"TIME_SYSTEM":"UTC","EPOCH":"2023-03-29T22:03:25.145856","NORAD_CAT_ID":"53673","TLE_LINE2":"2 53673  97.6555 331.6055 0001427  97.8055 262.3331 15.00463128 31862","BSTAR":"0.00042085000000","GP_ID":"229141160","MEAN_MOTION_DOT":"0.00005239","CLASSIFICATION_TYPE":"U","TLE_LINE1":"1 53673U 22105AB  23088.91904104  .00005239  00000-0  42085-3 0  9994","PERIOD":"95.970","PERIAPSIS":"564.478","INCLINATION":"97.6555","EPHEMERIS_TYPE":"0","MEAN_MOTION":"15.00463128","SITE":"AFWTR","ELEMENT_SET_NO":"999","OBJECT_TYPE":"PAYLOAD","APOAPSIS":"566.460","LAUNCH_DATE":"2022-08-31","MEAN_MOTION_DDOT":"0.0000000000000","REV_AT_EPOCH":"3186","OBJECT_NAME":"STARLINK-4456","SEMIMAJOR_AXIS":"6943.604","REF_FRAME":"TEME","ARG_OF_PERICENTER":"97.8055","CENTER_NAME":"EARTH","MEAN_ANOMALY":"262.3331","COUNTRY_CODE":"US","DECAY_DATE":null,"ECCENTRICITY":"0.00014270","RCS_SIZE":"LARGE","FILE":"3874790","RA_OF_ASC_NODE":"331.6055","OBJECT_ID":"2022-105AB","MEAN_ELEMENT_THEORY":"SGP4"},{"RA_OF_ASC_NODE":"330.8989","MEAN_ELEMENT_THEORY":"SGP4","OBJECT_ID":"2022-105AC","RCS_SIZE":"LARGE","FILE":"3874790","ECCENTRICITY":"0.00012540","DECAY_DATE":null,"COUNTRY_CODE":"US","MEAN_ANOMALY":"288.0040","CENTER_NAME":"EARTH","ARG_OF_PERICENTER":"72.1321","REF_FRAME":"TEME","SEMIMAJOR_AXIS":"6941.093","OBJECT_NAME":"STARLINK-4620","REV_AT_EPOCH":"3180","MEAN_MOTION_DDOT":"0.0000000000000","LAUNCH_DATE":"2022-08-31","APOAPSIS":"563.829","ELEMENT_SET_NO":"999","OBJECT_TYPE":"PAYLOAD","SITE":"AFWTR","EPHEMERIS_TYPE":"0","MEAN_MOTION":"15.01277410","PERIAPSIS":"562.088","INCLINATION":"97.6564","PERIOD":"95.918","TLE_LINE1":"1 53674U 22105AC  23088.70165450  .00002650  00000-0  21071-3 0  9991","CLASSIFICATION_TYPE":"U","GP_ID":"229141912","TLE_LINE2":"2 53674  97.6564 330.8989 0001254  72.1321 288.0040 15.01277410 31804","MEAN_MOTION_DOT":"0.00002650","BSTAR":"0.00021071000000","NORAD_CAT_ID":"53674","TIME_SYSTEM":"UTC","EPOCH":"2023-03-29T16:50:22.948800"},{"OBJECT_ID":"2022-105AD","RA_OF_ASC_NODE":"331.1006","MEAN_ELEMENT_THEORY":"SGP4","FILE":"3874790","RCS_SIZE":"LARGE","ECCENTRICITY":"0.00009340","DECAY_DATE":null,"COUNTRY_CODE":"US","MEAN_ANOMALY":"273.8579","CENTER_NAME":"EARTH","REF_FRAME":"TEME","ARG_OF_PERICENTER":"86.2752","SEMIMAJOR_AXIS":"6941.086","REV_AT_EPOCH":"3183","OBJECT_NAME":"STARLINK-4617","MEAN_MOTION_DDOT":"0.0000000000000","LAUNCH_DATE":"2022-08-31","APOAPSIS":"563.600","OBJECT_TYPE":"PAYLOAD","ELEMENT_SET_NO":"999","SITE":"AFWTR","MEAN_MOTION":"15.01279596","EPHEMERIS_TYPE":"0","INCLINATION":"97.6562","PERIAPSIS":"562.303","PERIOD":"95.918","TLE_LINE1":"1 53675U 22105AD  23088.90531607  .00010575  00000-0  82625-3 0  9992","CLASSIFICATION_TYPE":"U","GP_ID":"229141658","TLE_LINE2":"2 53675  97.6562 331.1006 0000934  86.2752 273.8579 15.01279596 31834","MEAN_MOTION_DOT":"0.00010575","BSTAR":"0.00082625000000","NORAD_CAT_ID":"53675","EPOCH":"2023-03-29T21:43:39.308448","TIME_SYSTEM":"UTC"}];
